KUIPER-00008            
1 63724U 25088A   25224.53940551  .00005059  00000+0  43647-3 0  9997
2 63724  51.8912 320.4908 0011540 114.7349 245.4823 14.98764822 16686
KUIPER-00009            
1 63725U 25088B   25224.75002315 -.01220400  00000+0 -94092-1 0  9999
2 63725  51.8856 312.0501 0011604 134.8320  33.1853 15.04438338  2096
KUIPER-00010            
1 63726U 25088C   25224.53376647  .00016316  00000+0  46002-3 0  9994
2 63726  51.8639 308.8584 0009062 127.5807 232.6003 15.36522098 16465
KUIPER-00011            
1 63727U 25088D   25224.50109525  .00016734  00000+0  47897-3 0  9998
2 63727  51.8586 309.3128 0010347 136.9446 223.2351 15.36016933 16590
KUIPER-00012            
1 63728U 25088E   25224.56283918  .00017433  00000+0  49625-3 0  9992
2 63728  51.8574 308.9633 0010549 138.3151 221.8641 15.36156805 16552
KUIPER-00013            
1 63729U 25088F   25224.75002315 -.01160892  00000+0 -10022+0 0  9990
2 63729  51.8996 312.8653 0007638  83.8062  48.9771 15.00082286  5357
KUIPER-00014            
1 63730U 25088G   25224.75002315 -.00946247  00000+0 -79056-1 0  9991
2 63730  51.8871 313.9307 0010772 124.2050 277.5959 15.00685122  4927
KUIPER-00015            
1 63731U 25088H   25224.54021581  .00000488  00000+0  90925-4 0  9992
2 63731  51.9010 326.2532 0011399 108.4204 251.7999 14.81143751 16681
